{"type":"FeatureCollection","features":[{"type":"Feature","geometry":{"type":"Polygon","coordinates":[[[9.224689463706715,11.342481550899581],[9.228279035169075,11.351854612443539],[9.223440958230107,11.378216780247476],[9.230495280707036,11.405658146400887],[9.240965253370542,11.43743812258458],[9.253004757035397,11.453651430595617],[9.286773527796186,11.484124893387293],[9.318477803704086,11.509354489571223],[9.333946412725,11.524943497896153],[9.355867326668653,11.547020562823253],[9.34160710779535,11.565418815098466],[9.314411066512799,11.572125244205974],[9.307731334227743,11.573770649557687],[9.289003135959726,11.588534753093537],[9.262012197343193,11.615869033568634],[9.251479795559744,11.634744476760279],[9.238182738468673,11.659684189382855],[9.230084998046186,11.691419636236782],[9.212409148914478,11.707200410158407],[9.179492019141636,11.704012084500176],[9.169766771431949,11.703775764232473],[9.132457415947767,11.702875011505864],[9.13071393513642,11.704881639351953],[9.127561361058625,11.736010613280946],[9.13553426933714,11.769337962149008],[9.16455850280498,11.805679610653028],[9.18979253271731,11.84397883341373],[9.192191595841503,11.86864212011828],[9.192963019147212,11.87651693237584],[9.210099328676327,11.905938079407303],[9.206911094443244,11.944928454616857],[9.205114017777479,11.950760960342945],[9.181578918119317,12.027073969564727],[9.170083313011475,12.059246388524448],[9.149914837542177,12.050774101049269],[9.126161204460024,12.022869059969192],[9.088802821458568,12.000413060829537],[9.05939511102241,11.997505724246869],[9.03724674154949,12.001474310526392],[9.03704163126557,12.042364209827399],[9.027869223972225,12.065275090358753],[8.992432742435682,12.060700081168136],[8.977160372702755,12.061261948953566],[8.977160372702755,12.059353372958938],[8.97410136609114,12.058443740501028],[8.966217717983357,12.057752621321859],[8.965490873845642,12.056731447991814],[8.962467624788792,12.055086088356793],[8.95828944649507,12.05134930238408],[8.946352415581387,12.042288446225124],[8.946419303060345,12.056793934075456],[8.94645047230803,12.05864445647349],[8.937532275691048,12.060659926403456],[8.925550731169627,12.064022098808596],[8.919802924563069,12.070211312032729],[8.923214115386788,12.083187332018793],[8.928377754572526,12.097563469240882],[8.941955741760653,12.112474670704655],[8.947382438525633,12.11959590177521],[8.94875138661972,12.208719901199851],[8.946472796236266,12.21352240729045],[8.941518724498733,12.23867169446048],[8.935699584595561,12.25549586244579],[8.927766895978175,12.263977098106832],[8.920868642581125,12.268306855984676],[8.908887033981186,12.271669088306217],[8.90456621608539,12.273006768991925],[8.890970377762375,12.277211737537506],[8.875305582393885,12.278036682354386],[8.858316341287427,12.279748931899958],[8.841804361405993,12.283771024671598],[8.827200763048811,12.286910250848242],[8.813524728348964,12.286397444776076],[8.803068106064353,12.286080901899586],[8.794341668753567,12.290424059371377],[8.789730931561154,12.292720466716336],[8.785138038925357,12.298717942909756],[8.773285815253402,12.314859927068445],[8.775925584607998,12.325526077885707],[8.781851755776254,12.337142062021993],[8.782386822297047,12.346871805001673],[8.778079326579931,12.36329017641206],[8.773629093647038,12.374380025292936],[8.771800926809892,12.384096401847831],[8.768920327930525,12.388814124237665],[8.764751079839941,12.395636539735028],[8.756595364728419,12.403002979203409],[8.744743065504741,12.40594147064651],[8.730193048538025,12.414427145903048],[8.717868058302557,12.423109055630144],[8.709386823162815,12.426685265271072],[8.703139628874656,12.429369634837382],[8.690257339890685,12.439344598953525],[8.684812738655733,12.45125938556734],[8.682476230163562,12.460681385047765],[8.68401010679816,12.474299548521934],[8.682810624408184,12.484889899253078],[8.681834059616802,12.495480261011798],[8.682757144738577,12.513240864590127],[8.681571030665845,12.524981651461914],[8.682547508151648,12.530756187533656],[8.681771681459667,12.539277555024695],[8.677589018613576,12.545217094542892],[8.666633005271876,12.548530212455756],[8.654076180780434,12.54928819704173],[8.639753532794911,12.552556731312784],[8.627241309252454,12.556543227156752],[8.615861691603582,12.561466007598206],[8.613373538876264,12.561916422919332],[8.607576692285003,12.562968775591298],[8.586311250048318,12.567071107321233],[8.574222625081923,12.569679689617889],[8.568189429128093,12.571677333457243],[8.551967226108614,12.577228943139772],[8.541421450919458,12.57734047339973],[8.527714206811073,12.575891251944581],[8.526679640568494,12.575779709499027],[8.511478562690325,12.573527885712538],[8.50023715767886,12.57293488306253],[8.49111386231175,12.571677398307157],[8.4841264143961,12.568823539596654],[8.471079086346855,12.563365623850201],[8.458045154650762,12.556984635052466],[8.447115958723675,12.550857823579053],[8.446585250149614,12.55060810739238],[8.426626354557284,12.541159288615907],[8.41594677823145,12.53411389864378],[8.407590421140108,12.528245761971943],[8.398574148767894,12.51960402810529],[8.395149553574901,12.513102592702895],[8.394748264359649,12.508251093121679],[8.393423891432048,12.502472152264552],[8.390931273693376,12.496211518492766],[8.390066186520292,12.491123725216973],[8.389441881481108,12.485349160683075],[8.388599140682876,12.478419771597837],[8.385419776152643,12.471459076225225],[8.382253843066833,12.463116123399118],[8.38043900506141,12.458942350130064],[8.374040136468105,12.447098972442255],[8.372479509924654,12.441542943078455],[8.36973266919549,12.436664735521905],[8.36722663011323,12.43156347994681],[8.364261362542846,12.425757787009733],[8.362450975417424,12.424295175287993],[8.358468947443933,12.421075724555491],[8.35584257913213,12.424509171683358],[8.347535245404961,12.432022751600382],[8.341114131095448,12.438871975580842],[8.339085259217121,12.449689711470961],[8.341078527577107,12.458251201341863],[8.340057399186428,12.46423978637578],[8.339508897397808,12.470000976743917],[8.334684128200058,12.479632621311861],[8.326046842575732,12.494071138570465],[8.318105197250974,12.50920535197066],[8.307974143332231,12.529850998543404],[8.300527429982735,12.54268427281223],[8.289063069074924,12.558242066173477],[8.283538245318523,12.567869329423042],[8.282833745967055,12.569603899916887],[8.278593112377695,12.569657369867933],[8.27040172345668,12.568868170636476],[8.25610139052964,12.569162455140253],[8.238791166002635,12.56711575025369],[8.225284519750986,12.564890629561024],[8.208041191072954,12.564012198569898],[8.19734384506645,12.56159087601587],[8.187377743028458,12.555709288911036],[8.179346861107517,12.543388818035734],[8.175338171220293,12.525565780765918],[8.170540140302858,12.516513838628745],[8.166678595939112,12.506775118312715],[8.159588650149427,12.493540518851658],[8.152708215684987,12.482615728547607],[8.146367405067922,12.464770403624103],[8.141649624322923,12.447865947223386],[8.138100237094681,12.430743046322126],[8.134555189607495,12.412924471643036],[8.126939108395957,12.405687313418264],[8.121873523231896,12.39940001322217],[8.107283383242164,12.3900091472198],[8.093839141506386,12.382709564935151],[8.090543874367674,12.381264804218524],[8.077594644259388,12.375606279742259],[8.066808075813984,12.37070572534909],[8.06250950046027,12.36874814944791],[8.044383303445121,12.363477527699569],[8.019978627426436,12.356057499544143],[8.00023375243176,12.34915035719706],[7.9786160233283825,12.34314843882923],[7.961403838237827,12.339037126197368],[7.948160362752944,12.33451112885733],[7.939108402892252,12.330948304634093],[7.928437769842605,12.325526111718546],[7.922195035453869,12.320612184568223],[7.909433038132433,12.314699367391569],[7.900626301548708,12.309758723359092],[7.88555453504303,12.301977551518664],[7.875597426026308,12.295636751009718],[7.8704917641335435,12.293273361240379],[7.868186347666804,12.290941311886598],[7.864953542745419,12.287672775869073],[7.861034003035156,12.283708593180217],[7.8593216851568615,12.282321876885943],[7.850630879079713,12.275285345439846],[7.8381721792148245,12.262915846708193],[7.8352024249444945,12.257110072248528],[7.833904788952991,12.247398188574998],[7.833855739026484,12.246987970652725],[7.831978505114057,12.230988631692634],[7.830787903583503,12.211118947482678],[7.832388738607711,12.191971582612673],[7.837128713217611,12.162242697668496],[7.837378456428535,12.13846682748044],[7.839425155451624,12.12116992977178],[7.840290200029785,12.105250937704977],[7.839817586574774,12.083771423724095],[7.839228940702733,12.073377307854008],[7.838907893373465,12.05929101910446],[7.839567834790724,12.041057730870108],[7.837846654690668,12.027417351397728],[7.839295839579091,12.022588167826237],[7.842171969807777,12.015230587868682],[7.841842027744006,12.00206732076569],[7.837570184115345,11.987066888934118],[7.836896815521986,11.984699110295171],[7.837445353562657,11.976623755341253],[7.8389971191531975,11.962327835256644],[7.836553535283411,11.952606967312636],[7.83091720396847,11.934547646418462],[7.8278047650940925,11.924586037891034],[7.82817928956606,11.914668949427169],[7.834337359314584,11.909897683634442],[7.841828581081061,11.893604204722132],[7.846265453864055,11.878193476938273],[7.853252852962199,11.862015929713273],[7.854496962898294,11.859139757747972],[7.862006083895824,11.841695741700807],[7.858978296653611,11.823663200446086],[7.8596025575940365,11.812363802876806],[7.857671841415173,11.799155978101233],[7.856392059919225,11.790407222232503],[7.851188239679842,11.777194881860707],[7.855825775367258,11.763866633694533],[7.8658275331183045,11.752446906504627],[7.870304431729898,11.733812281079617],[7.875262927710815,11.714486568111473],[7.879597243946518,11.706000831493778],[7.88773061093656,11.69432695984371],[7.8922922799969335,11.686304997443973],[7.893781613440683,11.680325330863035],[7.8954715835183755,11.676882927696786],[7.898882795106135,11.667692750884441],[7.899471435605251,11.658935054528042],[7.90019382690494,11.6575571721543],[7.901897157477087,11.652964312471019],[7.901219359297458,11.651898600912554],[7.899377814360407,11.649013558504894],[7.8952085120654925,11.645504274213774],[7.886557847286698,11.643787474029349],[7.878812443441963,11.64484878991332],[7.862211162438178,11.642115372445803],[7.849110321291134,11.640349499042463],[7.842756074771682,11.64258349479884],[7.8332359367821764,11.636242733677847],[7.8246342908744655,11.631065642152024],[7.815814221681443,11.624961189431794],[7.803293106479704,11.615588108451734],[7.792791854235658,11.612234932768919],[7.7866874052929,11.613086596841296],[7.772667946023701,11.610152525256229],[7.767294732870418,11.608939655335362],[7.757029881693334,11.605818208447483],[7.750510719769396,11.602514024706734],[7.742591343384314,11.599187604230195],[7.7379672695388875,11.594750784006125],[7.734752254630832,11.590099934458818],[7.7317735799742495,11.585217226386947],[7.725263301213575,11.581453746859442],[7.718556750496498,11.574912233400065],[7.71319246758282,11.573235622379848],[7.710022080714347,11.565356350808996],[7.715524573706017,11.557111514197798],[7.7144989909475,11.54671730061903],[7.71204206110144,11.53791952977668],[7.705879566896259,11.526312451220402],[7.697166438148144,11.512368859216824],[7.693496646027725,11.506786112125017],[7.688453397196485,11.498652638011784],[7.687561554571536,11.495410903564327],[7.691441003543604,11.486229621632067],[7.691561351973252,11.477463038941751],[7.694468744537442,11.47080555567857],[7.695476474371704,11.465508185788925],[7.69852650668262,11.448469977043272],[7.700082678088011,11.43787513715955],[7.702240881339807,11.434209738023114],[7.704965466417287,11.423628301463612],[7.707404585367544,11.416734553233107],[7.707689908667295,11.413278693994053],[7.713714195764191,11.407700418896772],[7.714338501608213,11.407125138637191],[7.7181599376306576,11.401863431738777],[7.726462733728102,11.394577217252568],[7.729744662605421,11.394385478446415],[7.734457953544068,11.392592924279011],[7.741079652516195,11.388285423159763],[7.750100463312371,11.380085196385298],[7.756472515305844,11.37670069170041],[7.762385316824345,11.373075497373037],[7.768084022317008,11.367608592906992],[7.772503012150241,11.363506255481786],[7.776266486028366,11.35920766758904],[7.800260853373415,11.358110737145433],[7.82608801933176,11.358908879310244],[7.849725696252209,11.36299342851885],[7.850613030994442,11.36314954415633],[7.8655198168730225,11.369566142299144],[7.876881621824543,11.379625848102608],[7.899377814360407,11.399517960936436],[7.9187169013075,11.417978602247226],[7.933030626426278,11.430615730136852],[7.957247967155613,11.44499182506092],[7.9719764282742895,11.454868754190095],[7.976881430057398,11.457535302085208],[8.01065463240111,11.475888979469916],[8.029868902756427,11.475808689453354],[8.03736469413616,11.475777484190056],[8.05904031881452,11.48482055664914],[8.083832942993464,11.492293988345095],[8.103181013732028,11.49554469924489],[8.12289471166663,11.492574912955742],[8.14122603920737,11.47955430961478],[8.146304971668174,11.459666709617432],[8.135607559419944,11.437603104130352],[8.122586978712667,11.413675620350826],[8.112295380876096,11.395553820884892],[8.112647645026827,11.376098714387624],[8.120821184982063,11.35461030165232],[8.137681089905243,11.33571710158391],[8.163450237127105,11.320114750306615],[8.194605922168577,11.306630405960254],[8.202650154457206,11.30446774460204],[8.227670182329362,11.298327531839695],[8.255120418400512,11.286961323529884],[8.279511682732972,11.261820866507671],[8.29427575958163,11.235833285123178],[8.311947199454,11.221194047982493],[8.336637247816105,11.212396228630489],[8.364207857050934,11.2144920254977],[8.381518051926754,11.21279310607331],[8.421061355958281,11.20343341707082],[8.439829735907983,11.189730586674749],[8.463431742321783,11.171684634438325],[8.486819756691892,11.146718080475868],[8.48705606933364,11.146566521710703],[8.507973762383347,11.132823545152045],[8.511804080713508,11.12787846260085],[8.522719966594213,11.113783208533198],[8.537885346515026,11.084812414405988],[8.549867021739912,11.05720163821979],[8.565950963569383,11.030317723149816],[8.569759068531843,11.012329731537726],[8.570124657333936,10.98807222464622],[8.572100091272885,10.9684521659299],[8.564037971595523,10.947579087802351],[8.555761888787217,10.929479619905042],[8.547655244899362,10.897516761948372],[8.540730272727195,10.874579217795551],[8.539499609045379,10.850999438766483],[8.545537225948555,10.82009342073443],[8.550665141150585,10.79056528652649],[8.55896355010032,10.754370717959306],[8.555668266661872,10.72684472467628],[8.54396758526867,10.709173266146573],[8.524329716347498,10.701365424050085],[8.497191581480289,10.69972003459417],[8.486677065080174,10.693847402134057],[8.477736601613614,10.681286058344917],[8.481722969943911,10.667685821405911],[8.483136574183899,10.662852111551022],[8.487412800665123,10.648105883779248],[8.504678438643113,10.630938360556897],[8.522907297007945,10.627874941958158],[8.54589842389812,10.628151445383871],[8.573535926335461,10.625569592692743],[8.618086779436613,10.615402865937575],[8.625823336339895,10.600090261547379],[8.639606357729312,10.584630623184465],[8.649938165429303,10.571427165691203],[8.656394869733704,10.565995973517593],[8.675841035066856,10.554767978254855],[8.72426689480724,10.544431799438877],[8.741278362553613,10.54909158144363],[8.745594729392467,10.550277646568102],[8.757192863791833,10.55804541461228],[8.769294853505889,10.580336451897418],[8.78044261085825,10.59455213877572],[8.79910394430985,10.623384625374278],[8.812672989048673,10.652832548835017],[8.820596846599429,10.684964844361632],[8.81933939387414,10.716958872846911],[8.806894057010949,10.743490541356893],[8.789423228159194,10.761483026849747],[8.784406742266015,10.766646674274122],[8.762499211290182,10.786819575475148],[8.744515699052831,10.812807234338527],[8.737225035885055,10.844480213704044],[8.73330549936305,10.891862702404907],[8.730835119313204,10.954468476034661],[8.731816171455824,10.962686581930711],[8.738032088284951,11.0104435599598],[8.750067211476198,11.056769112425378],[8.76385029092507,11.08323837265735],[8.771564571108506,11.086457805968337],[8.78029104713683,11.090096486957176],[8.824012534450816,11.087585961413115],[8.856867185528909,11.095674811871584],[8.87348621466526,11.11273085598517],[8.901163919834843,11.146994607832381],[8.922188536115364,11.185079727363762],[8.944038177575923,11.212579083493296],[8.960920318952862,11.224712270681875],[8.960915853346204,11.22510463139821],[8.963711709731811,11.232551316391552],[8.971804934904302,11.237924583863077],[8.980990724183757,11.2440157124934],[8.99903666863536,11.261473050761948],[9.02055627996384,11.278983972503292],[9.031409739738463,11.2965572777242],[9.071510469559016,11.321590665463935],[9.080040696547238,11.323057747499341],[9.098804607875348,11.32627276890613],[9.117234062855074,11.309363829855648],[9.135614489668065,11.307812104818115],[9.169592830380395,11.319811546005978],[9.187179510445738,11.329559135319688],[9.188419172916472,11.329804353122755],[9.22237971418501,11.34205349008148],[9.224689463706715,11.342481550899581]]]},"id":"00000000000000000957","properties":{"Shape_Leng":7.28568392647,"ADM1_CODE":2225,"STATUS":"Member State","ADM0_NAME":"Nigeria","ADM0_CODE":182,"EXP1_YEAR":3000,"Shape_Area":1.66552973884,"ADM1_NAME":"Kano","STR1_YEAR":1000,"DISP_AREA":"NO"}}]}